CCSDS_OMM_VERS = 2.0
CREATION_DATE  = 
ORIGINATOR     = 

OBJECT_NAME    = HTV-X1
OBJECT_ID      = 2025-241A
CENTER_NAME    = EARTH
REF_FRAME      = TEME
TIME_SYSTEM    = UTC
MEAN_ELEMENT_THEORY = SGP/SGP4

EPOCH          = 2026-04-04T20:46:04.960416
MEAN_MOTION    = 15.32538946
ECCENTRICITY   = .000734
INCLINATION    = 51.6361
RA_OF_ASC_NODE = 306.8880
ARG_OF_PERICENTER = 273.6341
MEAN_ANOMALY   = 86.3801

EPHEMERIS_TYPE = 0
CLASSIFICATION_TYPE = U
NORAD_CAT_ID   = 66174
ELEMENT_SET_NO = 999
REV_AT_EPOCH   = 2495
BSTAR          = .24011E-3
MEAN_MOTION_DOT = .7298E-4
MEAN_MOTION_DDOT = 0

CCSDS_OMM_VERS = 2.0
CREATION_DATE  = 
ORIGINATOR     = 

OBJECT_NAME    = SZ-21 MODULE
OBJECT_ID      = 2025-246C
CENTER_NAME    = EARTH
REF_FRAME      = TEME
TIME_SYSTEM    = UTC
MEAN_ELEMENT_THEORY = SGP/SGP4

EPOCH          = 2026-04-04T06:29:10.005216
MEAN_MOTION    = 15.70682632
ECCENTRICITY   = .00032252
INCLINATION    = 41.4750
RA_OF_ASC_NODE = 45.6530
ARG_OF_PERICENTER = 227.1909
MEAN_ANOMALY   = 132.8663

EPHEMERIS_TYPE = 0
CLASSIFICATION_TYPE = U
NORAD_CAT_ID   = 66515
ELEMENT_SET_NO = 999
REV_AT_EPOCH   = 2209
BSTAR          = .47836762E-3
MEAN_MOTION_DOT = .61134E-3
MEAN_MOTION_DDOT = 0

CCSDS_OMM_VERS = 2.0
CREATION_DATE  = 
ORIGINATOR     = 

OBJECT_NAME    = SHENZHOU-22
OBJECT_ID      = 2025-272A
CENTER_NAME    = EARTH
REF_FRAME      = TEME
TIME_SYSTEM    = UTC
MEAN_ELEMENT_THEORY = SGP/SGP4

EPOCH          = 2026-04-04T07:14:10.655808
MEAN_MOTION    = 15.62002278
ECCENTRICITY   = .0003749
INCLINATION    = 41.4679
RA_OF_ASC_NODE = 52.1686
ARG_OF_PERICENTER = 122.2718
MEAN_ANOMALY   = 237.8485

EPHEMERIS_TYPE = 0
CLASSIFICATION_TYPE = U
NORAD_CAT_ID   = 66645
ELEMENT_SET_NO = 999
REV_AT_EPOCH   = 28187
BSTAR          = .44965E-3
MEAN_MOTION_DOT = .40275E-3
MEAN_MOTION_DDOT = 0

CCSDS_OMM_VERS = 2.0
CREATION_DATE  = 
ORIGINATOR     = 

OBJECT_NAME    = SOYUZ-MS 28
OBJECT_ID      = 2025-275A
CENTER_NAME    = EARTH
REF_FRAME      = TEME
TIME_SYSTEM    = UTC
MEAN_ELEMENT_THEORY = SGP/SGP4

EPOCH          = 2026-04-04T20:14:42.961056
MEAN_MOTION    = 15.48773610
ECCENTRICITY   = .0006326
INCLINATION    = 51.6331
RA_OF_ASC_NODE = 303.0545
ARG_OF_PERICENTER = 272.5089
MEAN_ANOMALY   = 87.5175

EPHEMERIS_TYPE = 0
CLASSIFICATION_TYPE = U
NORAD_CAT_ID   = 66664
ELEMENT_SET_NO = 999
REV_AT_EPOCH   = 56047
BSTAR          = .17936E-3
MEAN_MOTION_DOT = .937E-4
MEAN_MOTION_DDOT = 0

CCSDS_OMM_VERS = 2.0
CREATION_DATE  = 
ORIGINATOR     = 

OBJECT_NAME    = DUPLEX
OBJECT_ID      = 1998-067XS
CENTER_NAME    = EARTH
REF_FRAME      = TEME
TIME_SYSTEM    = UTC
MEAN_ELEMENT_THEORY = SGP/SGP4

EPOCH          = 2026-04-04T13:54:10.138464
MEAN_MOTION    = 15.58002490
ECCENTRICITY   = .000339
INCLINATION    = 51.6284
RA_OF_ASC_NODE = 299.7899
ARG_OF_PERICENTER = 234.7456
MEAN_ANOMALY   = 125.3219

EPHEMERIS_TYPE = 0
CLASSIFICATION_TYPE = U
NORAD_CAT_ID   = 66906
ELEMENT_SET_NO = 999
REV_AT_EPOCH   = 1916
BSTAR          = .48606E-3
MEAN_MOTION_DOT = .36815E-3
MEAN_MOTION_DDOT = 0

CCSDS_OMM_VERS = 2.0
CREATION_DATE  = 
ORIGINATOR     = 

OBJECT_NAME    = ISS OBJECT XT
OBJECT_ID      = 1998-067XT
CENTER_NAME    = EARTH
REF_FRAME      = TEME
TIME_SYSTEM    = UTC
MEAN_ELEMENT_THEORY = SGP/SGP4

EPOCH          = 2026-04-04T13:11:17.854944
MEAN_MOTION    = 15.80264331
ECCENTRICITY   = .00071857
INCLINATION    = 51.6224
RA_OF_ASC_NODE = 292.7926
ARG_OF_PERICENTER = 249.6883
MEAN_ANOMALY   = 110.3346

EPHEMERIS_TYPE = 0
CLASSIFICATION_TYPE = U
NORAD_CAT_ID   = 66907
ELEMENT_SET_NO = 999
REV_AT_EPOCH   = 1925
BSTAR          = .15899957E-2
MEAN_MOTION_DOT = .316879E-2
MEAN_MOTION_DDOT = 0

CCSDS_OMM_VERS = 2.0
CREATION_DATE  = 
ORIGINATOR     = 

OBJECT_NAME    = ISS OBJECT XU
OBJECT_ID      = 1998-067XU
CENTER_NAME    = EARTH
REF_FRAME      = TEME
TIME_SYSTEM    = UTC
MEAN_ELEMENT_THEORY = SGP/SGP4

EPOCH          = 2026-04-04T13:04:01.545312
MEAN_MOTION    = 15.80626802
ECCENTRICITY   = .00073235
INCLINATION    = 51.6221
RA_OF_ASC_NODE = 292.7537
ARG_OF_PERICENTER = 249.1942
MEAN_ANOMALY   = 110.8275

EPHEMERIS_TYPE = 0
CLASSIFICATION_TYPE = U
NORAD_CAT_ID   = 66908
ELEMENT_SET_NO = 999
REV_AT_EPOCH   = 1925
BSTAR          = .16262848E-2
MEAN_MOTION_DOT = .330086E-2
MEAN_MOTION_DDOT = 0

CCSDS_OMM_VERS = 2.0
CREATION_DATE  = 
ORIGINATOR     = 

OBJECT_NAME    = SILVERSAT
OBJECT_ID      = 1998-067XV
CENTER_NAME    = EARTH
REF_FRAME      = TEME
TIME_SYSTEM    = UTC
MEAN_ELEMENT_THEORY = SGP/SGP4

EPOCH          = 2026-04-04T18:53:20.827104
MEAN_MOTION    = 15.88187528
ECCENTRICITY   = .000905
INCLINATION    = 51.6184
RA_OF_ASC_NODE = 289.8512
ARG_OF_PERICENTER = 258.4718
MEAN_ANOMALY   = 101.5271

EPHEMERIS_TYPE = 0
CLASSIFICATION_TYPE = U
NORAD_CAT_ID   = 66909
ELEMENT_SET_NO = 999
REV_AT_EPOCH   = 1931
BSTAR          = .18876E-2
MEAN_MOTION_DOT = .565248E-2
MEAN_MOTION_DDOT = 0

CCSDS_OMM_VERS = 2.0
CREATION_DATE  = 
ORIGINATOR     = 

OBJECT_NAME    = ISS OBJECT XW
OBJECT_ID      = 1998-067XW
CENTER_NAME    = EARTH
REF_FRAME      = TEME
TIME_SYSTEM    = UTC
MEAN_ELEMENT_THEORY = SGP/SGP4

EPOCH          = 2026-04-04T19:36:47.566944
MEAN_MOTION    = 15.78347512
ECCENTRICITY   = .0007449
INCLINATION    = 51.6195
RA_OF_ASC_NODE = 291.5715
ARG_OF_PERICENTER = 246.0581
MEAN_ANOMALY   = 113.9639

EPHEMERIS_TYPE = 0
CLASSIFICATION_TYPE = U
NORAD_CAT_ID   = 66910
ELEMENT_SET_NO = 999
REV_AT_EPOCH   = 1929
BSTAR          = .1262E-2
MEAN_MOTION_DOT = .228077E-2
MEAN_MOTION_DDOT = 0

CCSDS_OMM_VERS = 2.0
CREATION_DATE  = 
ORIGINATOR     = 

OBJECT_NAME    = ISS OBJECT XX
OBJECT_ID      = 1998-067XX
CENTER_NAME    = EARTH
REF_FRAME      = TEME
TIME_SYSTEM    = UTC
MEAN_ELEMENT_THEORY = SGP/SGP4

EPOCH          = 2026-04-04T13:36:50.998752
MEAN_MOTION    = 15.98982118
ECCENTRICITY   = .0011132
INCLINATION    = 51.6142
RA_OF_ASC_NODE = 289.0850
ARG_OF_PERICENTER = 263.7440
MEAN_ANOMALY   = 96.2301

EPHEMERIS_TYPE = 0
CLASSIFICATION_TYPE = U
NORAD_CAT_ID   = 66911
ELEMENT_SET_NO = 999
REV_AT_EPOCH   = 1929
BSTAR          = .20785E-2
MEAN_MOTION_DOT = .103035E-1
MEAN_MOTION_DDOT = .52428E-3

CCSDS_OMM_VERS = 2.0
CREATION_DATE  = 
ORIGINATOR     = 

OBJECT_NAME    = ISS OBJECT XY
OBJECT_ID      = 1998-067XY
CENTER_NAME    = EARTH
REF_FRAME      = TEME
TIME_SYSTEM    = UTC
MEAN_ELEMENT_THEORY = SGP/SGP4

EPOCH          = 2026-04-04T19:16:22.901376
MEAN_MOTION    = 15.69558582
ECCENTRICITY   = .0005119
INCLINATION    = 51.6250
RA_OF_ASC_NODE = 294.5166
ARG_OF_PERICENTER = 244.3771
MEAN_ANOMALY   = 115.6697

EPHEMERIS_TYPE = 0
CLASSIFICATION_TYPE = U
NORAD_CAT_ID   = 66912
ELEMENT_SET_NO = 999
REV_AT_EPOCH   = 1924
BSTAR          = .11708E-2
MEAN_MOTION_DOT = .143123E-2
MEAN_MOTION_DDOT = 0

CCSDS_OMM_VERS = 2.0
CREATION_DATE  = 
ORIGINATOR     = 

OBJECT_NAME    = KNACKSAT-2
OBJECT_ID      = 1998-067XZ
CENTER_NAME    = EARTH
REF_FRAME      = TEME
TIME_SYSTEM    = UTC
MEAN_ELEMENT_THEORY = SGP/SGP4

EPOCH          = 2026-04-04T18:57:48.329280
MEAN_MOTION    = 15.54148205
ECCENTRICITY   = .0010721
INCLINATION    = 51.6331
RA_OF_ASC_NODE = 301.9471
ARG_OF_PERICENTER = 281.6024
MEAN_ANOMALY   = 78.3763

EPHEMERIS_TYPE = 0
CLASSIFICATION_TYPE = U
NORAD_CAT_ID   = 67683
ELEMENT_SET_NO = 999
REV_AT_EPOCH   = 884
BSTAR          = .75544E-3
MEAN_MOTION_DOT = .4999E-3
MEAN_MOTION_DDOT = 0

